id;tipo;nombre;tipo_organizacion;tipo_seguro;tipo_asegurado;direccion;latitud;longitud;anio;num_empleados
1;MINISTERIO;MINISTERIO DE AGRICULTURA, GANADERÍA Y PESCA;MINISTERIO;VIDA;PERSONA;Av. Paseo Colón 982 CABA Argentina;-34.60963864;-58.3683297;2013; 5,614.00 
1;MINISTERIO;MINISTERIO DE AGRICULTURA, GANADERÍA Y PESCA;MINISTERIO;VIDA;PERSONA;Av. Paseo Colón 982 CABA Argentina;-34.60963864;-58.3683297;2014; 2,854.00 
1;MINISTERIO;MINISTERIO DE AGRICULTURA, GANADERÍA Y PESCA;MINISTERIO;VIDA;PERSONA;Av. Paseo Colón 982 CABA Argentina;-34.60963864;-58.3683297;2015; 6,624.00 
1;MINISTERIO;MINISTERIO DE AGRICULTURA, GANADERÍA Y PESCA;MINISTERIO;VIDA;PERSONA;Av. Paseo Colón 982 CABA Argentina;-34.60963864;-58.3683297;2016; 6,907.00 
1;MINISTERIO;MINISTERIO DE AGRICULTURA, GANADERÍA Y PESCA;MINISTERIO;VIDA;PERSONA;Av. Paseo Colón 982 CABA Argentina;-34.60963864;-58.3683297;2017; 5,177.00 
1;MINISTERIO;MINISTERIO DE AGRICULTURA, GANADERÍA Y PESCA;MINISTERIO;VIDA;PERSONA;Av. Paseo Colón 982 CABA Argentina;-34.60963864;-58.3683297;2018; 2,858.00 
1;MINISTERIO;MINISTERIO DE AGRICULTURA, GANADERÍA Y PESCA;MINISTERIO;VIDA;PERSONA;Av. Paseo Colón 982 CABA Argentina;-34.60963864;-58.3683297;2019; 5,743.00 
1;MINISTERIO;MINISTERIO DE AGRICULTURA, GANADERÍA Y PESCA;MINISTERIO;VIDA;PERSONA;Av. Paseo Colón 982 CABA Argentina;-34.60963864;-58.3683297;2020; 2,123.00 
1;MINISTERIO;MINISTERIO DE AGRICULTURA, GANADERÍA Y PESCA;MINISTERIO;VIDA;PERSONA;Av. Paseo Colón 982 CABA Argentina;-34.60963864;-58.3683297;2021; 2,238.00 
1;MINISTERIO;MINISTERIO DE AGRICULTURA, GANADERÍA Y PESCA;MINISTERIO;VIDA;PERSONA;Av. Paseo Colón 982 CABA Argentina;-34.60963864;-58.3683297;2022; 3,418.00 
2;MINISTERIO;MINISTERIO DE AMBIENTE Y DESARROLLO SOSTENIBLE;MINISTERIO;VIDA;PERSONA;San Martín 451, Ciudad Autónoma de Buenos Aires;-34.60256435;-58.37379506;2013; 5,440.00 
2;MINISTERIO;MINISTERIO DE AMBIENTE Y DESARROLLO SOSTENIBLE;MINISTERIO;VIDA;PERSONA;San Martín 451, Ciudad Autónoma de Buenos Aires;-34.60256435;-58.37379506;2014; 4,889.00 
2;MINISTERIO;MINISTERIO DE AMBIENTE Y DESARROLLO SOSTENIBLE;MINISTERIO;VIDA;PERSONA;San Martín 451, Ciudad Autónoma de Buenos Aires;-34.60256435;-58.37379506;2015; 6,139.00 
2;MINISTERIO;MINISTERIO DE AMBIENTE Y DESARROLLO SOSTENIBLE;MINISTERIO;VIDA;PERSONA;San Martín 451, Ciudad Autónoma de Buenos Aires;-34.60256435;-58.37379506;2016; 4,188.00 
2;MINISTERIO;MINISTERIO DE AMBIENTE Y DESARROLLO SOSTENIBLE;MINISTERIO;VIDA;PERSONA;San Martín 451, Ciudad Autónoma de Buenos Aires;-34.60256435;-58.37379506;2017; 6,726.00 
2;MINISTERIO;MINISTERIO DE AMBIENTE Y DESARROLLO SOSTENIBLE;MINISTERIO;VIDA;PERSONA;San Martín 451, Ciudad Autónoma de Buenos Aires;-34.60256435;-58.37379506;2018; 5,455.00 
2;MINISTERIO;MINISTERIO DE AMBIENTE Y DESARROLLO SOSTENIBLE;MINISTERIO;VIDA;PERSONA;San Martín 451, Ciudad Autónoma de Buenos Aires;-34.60256435;-58.37379506;2019; 4,051.00 
2;MINISTERIO;MINISTERIO DE AMBIENTE Y DESARROLLO SOSTENIBLE;MINISTERIO;VIDA;PERSONA;San Martín 451, Ciudad Autónoma de Buenos Aires;-34.60256435;-58.37379506;2020; 3,189.00 
2;MINISTERIO;MINISTERIO DE AMBIENTE Y DESARROLLO SOSTENIBLE;MINISTERIO;VIDA;PERSONA;San Martín 451, Ciudad Autónoma de Buenos Aires;-34.60256435;-58.37379506;2021; 6,714.00 
2;MINISTERIO;MINISTERIO DE AMBIENTE Y DESARROLLO SOSTENIBLE;MINISTERIO;VIDA;PERSONA;San Martín 451, Ciudad Autónoma de Buenos Aires;-34.60256435;-58.37379506;2022; 2,560.00 
3;MINISTERIO;MINISTERIO DE CIENCIA, TECNOLOGÍA E INNOVACIÓN;MINISTERIO;VEHICULAR;PERSONA;Godoy Cruz 2320. Ciudad Autónoma de Buenos Aires;-34.58208273;-58.42879291;2013; 4,420.00 
3;MINISTERIO;MINISTERIO DE CIENCIA, TECNOLOGÍA E INNOVACIÓN;MINISTERIO;VEHICULAR;PERSONA;Godoy Cruz 2320. Ciudad Autónoma de Buenos Aires;-34.58208273;-58.42879291;2014; 2,287.00 
3;MINISTERIO;MINISTERIO DE CIENCIA, TECNOLOGÍA E INNOVACIÓN;MINISTERIO;VEHICULAR;PERSONA;Godoy Cruz 2320. Ciudad Autónoma de Buenos Aires;-34.58208273;-58.42879291;2015; 2,352.00 
3;MINISTERIO;MINISTERIO DE CIENCIA, TECNOLOGÍA E INNOVACIÓN;MINISTERIO;VEHICULAR;PERSONA;Godoy Cruz 2320. Ciudad Autónoma de Buenos Aires;-34.58208273;-58.42879291;2016; 2,404.00 
3;MINISTERIO;MINISTERIO DE CIENCIA, TECNOLOGÍA E INNOVACIÓN;MINISTERIO;VEHICULAR;PERSONA;Godoy Cruz 2320. Ciudad Autónoma de Buenos Aires;-34.58208273;-58.42879291;2017; 3,286.00 
3;MINISTERIO;MINISTERIO DE CIENCIA, TECNOLOGÍA E INNOVACIÓN;MINISTERIO;VEHICULAR;PERSONA;Godoy Cruz 2320. Ciudad Autónoma de Buenos Aires;-34.58208273;-58.42879291;2018; 4,676.00 
3;MINISTERIO;MINISTERIO DE CIENCIA, TECNOLOGÍA E INNOVACIÓN;MINISTERIO;VEHICULAR;PERSONA;Godoy Cruz 2320. Ciudad Autónoma de Buenos Aires;-34.58208273;-58.42879291;2019; 5,592.00 
3;MINISTERIO;MINISTERIO DE CIENCIA, TECNOLOGÍA E INNOVACIÓN;MINISTERIO;VEHICULAR;PERSONA;Godoy Cruz 2320. Ciudad Autónoma de Buenos Aires;-34.58208273;-58.42879291;2020; 5,178.00 
3;MINISTERIO;MINISTERIO DE CIENCIA, TECNOLOGÍA E INNOVACIÓN;MINISTERIO;VEHICULAR;PERSONA;Godoy Cruz 2320. Ciudad Autónoma de Buenos Aires;-34.58208273;-58.42879291;2021; 5,691.00 
3;MINISTERIO;MINISTERIO DE CIENCIA, TECNOLOGÍA E INNOVACIÓN;MINISTERIO;VEHICULAR;PERSONA;Godoy Cruz 2320. Ciudad Autónoma de Buenos Aires;-34.58208273;-58.42879291;2022; 5,223.00 
4;MINISTERIO;MINISTERIO DE CULTURA;MINISTERIO;VIDA;PERSONA;Azopardo 250, C1107 CABA, Argentina;-34.61107653;-58.36768837;2013; 5,597.00 
4;MINISTERIO;MINISTERIO DE CULTURA;MINISTERIO;VIDA;PERSONA;Azopardo 250, C1107 CABA, Argentina;-34.61107653;-58.36768837;2014; 6,127.00 
4;MINISTERIO;MINISTERIO DE CULTURA;MINISTERIO;VIDA;PERSONA;Azopardo 250, C1107 CABA, Argentina;-34.61107653;-58.36768837;2015; 4,059.00 
4;MINISTERIO;MINISTERIO DE CULTURA;MINISTERIO;VIDA;PERSONA;Azopardo 250, C1107 CABA, Argentina;-34.61107653;-58.36768837;2016; 6,013.00 
4;MINISTERIO;MINISTERIO DE CULTURA;MINISTERIO;VIDA;PERSONA;Azopardo 250, C1107 CABA, Argentina;-34.61107653;-58.36768837;2017; 6,617.00 
4;MINISTERIO;MINISTERIO DE CULTURA;MINISTERIO;VIDA;PERSONA;Azopardo 250, C1107 CABA, Argentina;-34.61107653;-58.36768837;2018; 2,525.00 
4;MINISTERIO;MINISTERIO DE CULTURA;MINISTERIO;VIDA;PERSONA;Azopardo 250, C1107 CABA, Argentina;-34.61107653;-58.36768837;2019; 6,044.00 
4;MINISTERIO;MINISTERIO DE CULTURA;MINISTERIO;VIDA;PERSONA;Azopardo 250, C1107 CABA, Argentina;-34.61107653;-58.36768837;2020; 6,885.00 
4;MINISTERIO;MINISTERIO DE CULTURA;MINISTERIO;VIDA;PERSONA;Azopardo 250, C1107 CABA, Argentina;-34.61107653;-58.36768837;2021; 2,844.00 
4;MINISTERIO;MINISTERIO DE CULTURA;MINISTERIO;VIDA;PERSONA;Azopardo 250, C1107 CABA, Argentina;-34.61107653;-58.36768837;2022; 6,973.00 
5;MINISTERIO;MINISTERIO DE DESARROLLO PRODUCTIVO;MINISTERIO;HOGAR;PERSONA;Av. Pres. Julio A. Roca 651, Argentina;-34.6106301;-58.37579386;2013; 4,822.00 
5;MINISTERIO;MINISTERIO DE DESARROLLO PRODUCTIVO;MINISTERIO;HOGAR;PERSONA;Av. Pres. Julio A. Roca 651, Argentina;-34.6106301;-58.37579386;2014; 6,693.00 
5;MINISTERIO;MINISTERIO DE DESARROLLO PRODUCTIVO;MINISTERIO;HOGAR;PERSONA;Av. Pres. Julio A. Roca 651, Argentina;-34.6106301;-58.37579386;2015; 6,996.00 
5;MINISTERIO;MINISTERIO DE DESARROLLO PRODUCTIVO;MINISTERIO;HOGAR;PERSONA;Av. Pres. Julio A. Roca 651, Argentina;-34.6106301;-58.37579386;2016; 5,972.00 
5;MINISTERIO;MINISTERIO DE DESARROLLO PRODUCTIVO;MINISTERIO;HOGAR;PERSONA;Av. Pres. Julio A. Roca 651, Argentina;-34.6106301;-58.37579386;2017; 5,011.00 
5;MINISTERIO;MINISTERIO DE DESARROLLO PRODUCTIVO;MINISTERIO;HOGAR;PERSONA;Av. Pres. Julio A. Roca 651, Argentina;-34.6106301;-58.37579386;2018; 2,379.00 
5;MINISTERIO;MINISTERIO DE DESARROLLO PRODUCTIVO;MINISTERIO;HOGAR;PERSONA;Av. Pres. Julio A. Roca 651, Argentina;-34.6106301;-58.37579386;2019; 5,236.00 
5;MINISTERIO;MINISTERIO DE DESARROLLO PRODUCTIVO;MINISTERIO;HOGAR;PERSONA;Av. Pres. Julio A. Roca 651, Argentina;-34.6106301;-58.37579386;2020; 2,492.00 
5;MINISTERIO;MINISTERIO DE DESARROLLO PRODUCTIVO;MINISTERIO;HOGAR;PERSONA;Av. Pres. Julio A. Roca 651, Argentina;-34.6106301;-58.37579386;2021; 2,007.00 
5;MINISTERIO;MINISTERIO DE DESARROLLO PRODUCTIVO;MINISTERIO;HOGAR;PERSONA;Av. Pres. Julio A. Roca 651, Argentina;-34.6106301;-58.37579386;2022; 4,656.00 
6;MINISTERIO;MINISTERIO DE DEFENSA;MINISTERIO;HOGAR;PERSONA;Azopardo 250, C1107 CABA, Argentina;-34.61114717;-58.36773129;2013; 2,548.00 
6;MINISTERIO;MINISTERIO DE DEFENSA;MINISTERIO;HOGAR;PERSONA;Azopardo 250, C1107 CABA, Argentina;-34.61114717;-58.36773129;2014; 6,689.00 
6;MINISTERIO;MINISTERIO DE DEFENSA;MINISTERIO;HOGAR;PERSONA;Azopardo 250, C1107 CABA, Argentina;-34.61114717;-58.36773129;2015; 6,590.00 
6;MINISTERIO;MINISTERIO DE DEFENSA;MINISTERIO;HOGAR;PERSONA;Azopardo 250, C1107 CABA, Argentina;-34.61114717;-58.36773129;2016; 6,707.00 
6;MINISTERIO;MINISTERIO DE DEFENSA;MINISTERIO;HOGAR;PERSONA;Azopardo 250, C1107 CABA, Argentina;-34.61114717;-58.36773129;2017; 3,591.00 
6;MINISTERIO;MINISTERIO DE DEFENSA;MINISTERIO;HOGAR;PERSONA;Azopardo 250, C1107 CABA, Argentina;-34.61114717;-58.36773129;2018; 5,839.00 
6;MINISTERIO;MINISTERIO DE DEFENSA;MINISTERIO;HOGAR;PERSONA;Azopardo 250, C1107 CABA, Argentina;-34.61114717;-58.36773129;2019; 2,328.00 
6;MINISTERIO;MINISTERIO DE DEFENSA;MINISTERIO;HOGAR;PERSONA;Azopardo 250, C1107 CABA, Argentina;-34.61114717;-58.36773129;2020; 5,936.00 
6;MINISTERIO;MINISTERIO DE DEFENSA;MINISTERIO;HOGAR;PERSONA;Azopardo 250, C1107 CABA, Argentina;-34.61114717;-58.36773129;2021; 6,677.00 
6;MINISTERIO;MINISTERIO DE DEFENSA;MINISTERIO;HOGAR;PERSONA;Azopardo 250, C1107 CABA, Argentina;-34.61114717;-58.36773129;2022; 4,300.00 
7;MINISTERIO;MINISTERIO DE DESARROLLO SOCIAL;MINISTERIO;VIDA;PERSONA;Av. 9 de Julio 1925, CABA, Argentina;-34.61201078;-58.38136174;2013; 5,168.00 
7;MINISTERIO;MINISTERIO DE DESARROLLO SOCIAL;MINISTERIO;VIDA;PERSONA;Av. 9 de Julio 1925, CABA, Argentina;-34.61201078;-58.38136174;2014; 6,025.00 
7;MINISTERIO;MINISTERIO DE DESARROLLO SOCIAL;MINISTERIO;VIDA;PERSONA;Av. 9 de Julio 1925, CABA, Argentina;-34.61201078;-58.38136174;2015; 5,732.00 
7;MINISTERIO;MINISTERIO DE DESARROLLO SOCIAL;MINISTERIO;VIDA;PERSONA;Av. 9 de Julio 1925, CABA, Argentina;-34.61201078;-58.38136174;2016; 2,591.00 
7;MINISTERIO;MINISTERIO DE DESARROLLO SOCIAL;MINISTERIO;VIDA;PERSONA;Av. 9 de Julio 1925, CABA, Argentina;-34.61201078;-58.38136174;2017; 2,306.00 
7;MINISTERIO;MINISTERIO DE DESARROLLO SOCIAL;MINISTERIO;VIDA;PERSONA;Av. 9 de Julio 1925, CABA, Argentina;-34.61201078;-58.38136174;2018; 5,985.00 
7;MINISTERIO;MINISTERIO DE DESARROLLO SOCIAL;MINISTERIO;VIDA;PERSONA;Av. 9 de Julio 1925, CABA, Argentina;-34.61201078;-58.38136174;2019; 2,085.00 
7;MINISTERIO;MINISTERIO DE DESARROLLO SOCIAL;MINISTERIO;VIDA;PERSONA;Av. 9 de Julio 1925, CABA, Argentina;-34.61201078;-58.38136174;2020; 6,688.00 
7;MINISTERIO;MINISTERIO DE DESARROLLO SOCIAL;MINISTERIO;VIDA;PERSONA;Av. 9 de Julio 1925, CABA, Argentina;-34.61201078;-58.38136174;2021; 3,923.00 
7;MINISTERIO;MINISTERIO DE DESARROLLO SOCIAL;MINISTERIO;VIDA;PERSONA;Av. 9 de Julio 1925, CABA, Argentina;-34.61201078;-58.38136174;2022; 5,460.00 
8;MINISTERIO;MINISTERIO DE DESARROLLO TERRITORIAL Y HÁBITAT;MINISTERIO;VIDA;PERSONA;Esmeralda 255, piso 8, CABA, Argentina;-34.60514835;-58.3778606;2013; 3,129.00 
8;MINISTERIO;MINISTERIO DE DESARROLLO TERRITORIAL Y HÁBITAT;MINISTERIO;VIDA;PERSONA;Esmeralda 255, piso 8, CABA, Argentina;-34.60514835;-58.3778606;2014; 6,433.00 
8;MINISTERIO;MINISTERIO DE DESARROLLO TERRITORIAL Y HÁBITAT;MINISTERIO;VIDA;PERSONA;Esmeralda 255, piso 8, CABA, Argentina;-34.60514835;-58.3778606;2015; 3,067.00 
8;MINISTERIO;MINISTERIO DE DESARROLLO TERRITORIAL Y HÁBITAT;MINISTERIO;VIDA;PERSONA;Esmeralda 255, piso 8, CABA, Argentina;-34.60514835;-58.3778606;2016; 5,565.00 
8;MINISTERIO;MINISTERIO DE DESARROLLO TERRITORIAL Y HÁBITAT;MINISTERIO;VIDA;PERSONA;Esmeralda 255, piso 8, CABA, Argentina;-34.60514835;-58.3778606;2017; 6,775.00 
8;MINISTERIO;MINISTERIO DE DESARROLLO TERRITORIAL Y HÁBITAT;MINISTERIO;VIDA;PERSONA;Esmeralda 255, piso 8, CABA, Argentina;-34.60514835;-58.3778606;2018; 3,194.00 
8;MINISTERIO;MINISTERIO DE DESARROLLO TERRITORIAL Y HÁBITAT;MINISTERIO;VIDA;PERSONA;Esmeralda 255, piso 8, CABA, Argentina;-34.60514835;-58.3778606;2019; 6,553.00 
8;MINISTERIO;MINISTERIO DE DESARROLLO TERRITORIAL Y HÁBITAT;MINISTERIO;VIDA;PERSONA;Esmeralda 255, piso 8, CABA, Argentina;-34.60514835;-58.3778606;2020; 5,248.00 
8;MINISTERIO;MINISTERIO DE DESARROLLO TERRITORIAL Y HÁBITAT;MINISTERIO;VIDA;PERSONA;Esmeralda 255, piso 8, CABA, Argentina;-34.60514835;-58.3778606;2021; 3,672.00 
8;MINISTERIO;MINISTERIO DE DESARROLLO TERRITORIAL Y HÁBITAT;MINISTERIO;VIDA;PERSONA;Esmeralda 255, piso 8, CABA, Argentina;-34.60514835;-58.3778606;2022; 5,713.00 
9;MINISTERIO;MINISTERIO DE ECONOMÍA;MINISTERIO;VIDA;PERSONA;Hipólito Yrigoyen 250, Buenos Aires, Argentina;-34.60882488;-58.37008536;2013; 4,956.00 
9;MINISTERIO;MINISTERIO DE ECONOMÍA;MINISTERIO;VIDA;PERSONA;Hipólito Yrigoyen 250, Buenos Aires, Argentina;-34.60882488;-58.37008536;2014; 3,663.00 
9;MINISTERIO;MINISTERIO DE ECONOMÍA;MINISTERIO;VIDA;PERSONA;Hipólito Yrigoyen 250, Buenos Aires, Argentina;-34.60882488;-58.37008536;2015; 5,094.00 
9;MINISTERIO;MINISTERIO DE ECONOMÍA;MINISTERIO;VIDA;PERSONA;Hipólito Yrigoyen 250, Buenos Aires, Argentina;-34.60882488;-58.37008536;2016; 2,594.00 
9;MINISTERIO;MINISTERIO DE ECONOMÍA;MINISTERIO;VIDA;PERSONA;Hipólito Yrigoyen 250, Buenos Aires, Argentina;-34.60882488;-58.37008536;2017; 3,656.00 
9;MINISTERIO;MINISTERIO DE ECONOMÍA;MINISTERIO;VIDA;PERSONA;Hipólito Yrigoyen 250, Buenos Aires, Argentina;-34.60882488;-58.37008536;2018; 3,201.00 
9;MINISTERIO;MINISTERIO DE ECONOMÍA;MINISTERIO;VIDA;PERSONA;Hipólito Yrigoyen 250, Buenos Aires, Argentina;-34.60882488;-58.37008536;2019; 2,216.00 
9;MINISTERIO;MINISTERIO DE ECONOMÍA;MINISTERIO;VIDA;PERSONA;Hipólito Yrigoyen 250, Buenos Aires, Argentina;-34.60882488;-58.37008536;2020; 3,584.00 
9;MINISTERIO;MINISTERIO DE ECONOMÍA;MINISTERIO;VIDA;PERSONA;Hipólito Yrigoyen 250, Buenos Aires, Argentina;-34.60882488;-58.37008536;2021; 3,792.00 
9;MINISTERIO;MINISTERIO DE ECONOMÍA;MINISTERIO;VIDA;PERSONA;Hipólito Yrigoyen 250, Buenos Aires, Argentina;-34.60882488;-58.37008536;2022; 4,523.00 
10;MINISTERIO;MINISTERIO DE EDUCACIÓN;MINISTERIO;VIDA;PERSONA;Pizzurno 935, Ciudad Autónoma de Buenos Aires, Argentina;-34.59800102;-58.39100401;2013; 5,839.00 
10;MINISTERIO;MINISTERIO DE EDUCACIÓN;MINISTERIO;VIDA;PERSONA;Pizzurno 935, Ciudad Autónoma de Buenos Aires, Argentina;-34.59800102;-58.39100401;2014; 4,876.00 
10;MINISTERIO;MINISTERIO DE EDUCACIÓN;MINISTERIO;VIDA;PERSONA;Pizzurno 935, Ciudad Autónoma de Buenos Aires, Argentina;-34.59800102;-58.39100401;2015; 3,076.00 
10;MINISTERIO;MINISTERIO DE EDUCACIÓN;MINISTERIO;VIDA;PERSONA;Pizzurno 935, Ciudad Autónoma de Buenos Aires, Argentina;-34.59800102;-58.39100401;2016; 3,362.00 
10;MINISTERIO;MINISTERIO DE EDUCACIÓN;MINISTERIO;VIDA;PERSONA;Pizzurno 935, Ciudad Autónoma de Buenos Aires, Argentina;-34.59800102;-58.39100401;2017; 2,001.00 
10;MINISTERIO;MINISTERIO DE EDUCACIÓN;MINISTERIO;VIDA;PERSONA;Pizzurno 935, Ciudad Autónoma de Buenos Aires, Argentina;-34.59800102;-58.39100401;2018; 6,209.00 
10;MINISTERIO;MINISTERIO DE EDUCACIÓN;MINISTERIO;VIDA;PERSONA;Pizzurno 935, Ciudad Autónoma de Buenos Aires, Argentina;-34.59800102;-58.39100401;2019; 6,154.00 
10;MINISTERIO;MINISTERIO DE EDUCACIÓN;MINISTERIO;VIDA;PERSONA;Pizzurno 935, Ciudad Autónoma de Buenos Aires, Argentina;-34.59800102;-58.39100401;2020; 4,976.00 
10;MINISTERIO;MINISTERIO DE EDUCACIÓN;MINISTERIO;VIDA;PERSONA;Pizzurno 935, Ciudad Autónoma de Buenos Aires, Argentina;-34.59800102;-58.39100401;2021; 6,033.00 
10;MINISTERIO;MINISTERIO DE EDUCACIÓN;MINISTERIO;VIDA;PERSONA;Pizzurno 935, Ciudad Autónoma de Buenos Aires, Argentina;-34.59800102;-58.39100401;2022; 5,485.00 
11;MINISTERIO;MINISTERIO DEL INTERIOR;MINISTERIO;FAMILIAR;PERSONA;25 de Mayo 101, Ciudad de Buenos Aires, Argentina;-34.60639037;-58.3706492;2013; 3,581.00 
11;MINISTERIO;MINISTERIO DEL INTERIOR;MINISTERIO;FAMILIAR;PERSONA;25 de Mayo 101, Ciudad de Buenos Aires, Argentina;-34.60639037;-58.3706492;2014; 4,634.00 
11;MINISTERIO;MINISTERIO DEL INTERIOR;MINISTERIO;FAMILIAR;PERSONA;25 de Mayo 101, Ciudad de Buenos Aires, Argentina;-34.60639037;-58.3706492;2015; 2,856.00 
11;MINISTERIO;MINISTERIO DEL INTERIOR;MINISTERIO;FAMILIAR;PERSONA;25 de Mayo 101, Ciudad de Buenos Aires, Argentina;-34.60639037;-58.3706492;2016; 3,368.00 
11;MINISTERIO;MINISTERIO DEL INTERIOR;MINISTERIO;FAMILIAR;PERSONA;25 de Mayo 101, Ciudad de Buenos Aires, Argentina;-34.60639037;-58.3706492;2017; 3,639.00 
11;MINISTERIO;MINISTERIO DEL INTERIOR;MINISTERIO;FAMILIAR;PERSONA;25 de Mayo 101, Ciudad de Buenos Aires, Argentina;-34.60639037;-58.3706492;2018; 3,383.00 
11;MINISTERIO;MINISTERIO DEL INTERIOR;MINISTERIO;FAMILIAR;PERSONA;25 de Mayo 101, Ciudad de Buenos Aires, Argentina;-34.60639037;-58.3706492;2019; 6,098.00 
11;MINISTERIO;MINISTERIO DEL INTERIOR;MINISTERIO;FAMILIAR;PERSONA;25 de Mayo 101, Ciudad de Buenos Aires, Argentina;-34.60639037;-58.3706492;2020; 6,118.00 
11;MINISTERIO;MINISTERIO DEL INTERIOR;MINISTERIO;FAMILIAR;PERSONA;25 de Mayo 101, Ciudad de Buenos Aires, Argentina;-34.60639037;-58.3706492;2021; 3,158.00 
11;MINISTERIO;MINISTERIO DEL INTERIOR;MINISTERIO;FAMILIAR;PERSONA;25 de Mayo 101, Ciudad de Buenos Aires, Argentina;-34.60639037;-58.3706492;2022; 6,719.00 
12;MINISTERIO;MINISTERIO DE JUSTICIA Y DERECHOS HUMANOS;MINISTERIO;VIDA;PERSONA;Sarmiento 329, Ciudad Autónoma de Buenos Aires, Argentina;-34.60404366;-58.37145594;2013; 4,622.00 
12;MINISTERIO;MINISTERIO DE JUSTICIA Y DERECHOS HUMANOS;MINISTERIO;VIDA;PERSONA;Sarmiento 329, Ciudad Autónoma de Buenos Aires, Argentina;-34.60404366;-58.37145594;2014; 5,366.00 
12;MINISTERIO;MINISTERIO DE JUSTICIA Y DERECHOS HUMANOS;MINISTERIO;VIDA;PERSONA;Sarmiento 329, Ciudad Autónoma de Buenos Aires, Argentina;-34.60404366;-58.37145594;2015; 2,586.00 
12;MINISTERIO;MINISTERIO DE JUSTICIA Y DERECHOS HUMANOS;MINISTERIO;VIDA;PERSONA;Sarmiento 329, Ciudad Autónoma de Buenos Aires, Argentina;-34.60404366;-58.37145594;2016; 4,650.00 
12;MINISTERIO;MINISTERIO DE JUSTICIA Y DERECHOS HUMANOS;MINISTERIO;VIDA;PERSONA;Sarmiento 329, Ciudad Autónoma de Buenos Aires, Argentina;-34.60404366;-58.37145594;2017; 4,914.00 
12;MINISTERIO;MINISTERIO DE JUSTICIA Y DERECHOS HUMANOS;MINISTERIO;VIDA;PERSONA;Sarmiento 329, Ciudad Autónoma de Buenos Aires, Argentina;-34.60404366;-58.37145594;2018; 6,842.00 
12;MINISTERIO;MINISTERIO DE JUSTICIA Y DERECHOS HUMANOS;MINISTERIO;VIDA;PERSONA;Sarmiento 329, Ciudad Autónoma de Buenos Aires, Argentina;-34.60404366;-58.37145594;2019; 4,791.00 
12;MINISTERIO;MINISTERIO DE JUSTICIA Y DERECHOS HUMANOS;MINISTERIO;VIDA;PERSONA;Sarmiento 329, Ciudad Autónoma de Buenos Aires, Argentina;-34.60404366;-58.37145594;2020; 3,393.00 
12;MINISTERIO;MINISTERIO DE JUSTICIA Y DERECHOS HUMANOS;MINISTERIO;VIDA;PERSONA;Sarmiento 329, Ciudad Autónoma de Buenos Aires, Argentina;-34.60404366;-58.37145594;2021; 5,983.00 
12;MINISTERIO;MINISTERIO DE JUSTICIA Y DERECHOS HUMANOS;MINISTERIO;VIDA;PERSONA;Sarmiento 329, Ciudad Autónoma de Buenos Aires, Argentina;-34.60404366;-58.37145594;2022; 4,232.00 
13;MINISTERIO;MINISTERIO DE LAS MUJERES, GÉNEROS Y DIVERSIDAD;MINISTERIO;VEHICULAR;PERSONA;Balcarce 186, Argentina;-34.60978093;-58.37060433;2013; 3,239.00 
13;MINISTERIO;MINISTERIO DE LAS MUJERES, GÉNEROS Y DIVERSIDAD;MINISTERIO;VEHICULAR;PERSONA;Balcarce 186, Argentina;-34.60978093;-58.37060433;2014; 3,442.00 
13;MINISTERIO;MINISTERIO DE LAS MUJERES, GÉNEROS Y DIVERSIDAD;MINISTERIO;VEHICULAR;PERSONA;Balcarce 186, Argentina;-34.60978093;-58.37060433;2015; 4,283.00 
13;MINISTERIO;MINISTERIO DE LAS MUJERES, GÉNEROS Y DIVERSIDAD;MINISTERIO;VEHICULAR;PERSONA;Balcarce 186, Argentina;-34.60978093;-58.37060433;2016; 2,064.00 
13;MINISTERIO;MINISTERIO DE LAS MUJERES, GÉNEROS Y DIVERSIDAD;MINISTERIO;VEHICULAR;PERSONA;Balcarce 186, Argentina;-34.60978093;-58.37060433;2017; 2,486.00 
13;MINISTERIO;MINISTERIO DE LAS MUJERES, GÉNEROS Y DIVERSIDAD;MINISTERIO;VEHICULAR;PERSONA;Balcarce 186, Argentina;-34.60978093;-58.37060433;2018; 4,766.00 
13;MINISTERIO;MINISTERIO DE LAS MUJERES, GÉNEROS Y DIVERSIDAD;MINISTERIO;VEHICULAR;PERSONA;Balcarce 186, Argentina;-34.60978093;-58.37060433;2019; 4,403.00 
13;MINISTERIO;MINISTERIO DE LAS MUJERES, GÉNEROS Y DIVERSIDAD;MINISTERIO;VEHICULAR;PERSONA;Balcarce 186, Argentina;-34.60978093;-58.37060433;2020; 6,437.00 
13;MINISTERIO;MINISTERIO DE LAS MUJERES, GÉNEROS Y DIVERSIDAD;MINISTERIO;VEHICULAR;PERSONA;Balcarce 186, Argentina;-34.60978093;-58.37060433;2021; 5,939.00 
13;MINISTERIO;MINISTERIO DE LAS MUJERES, GÉNEROS Y DIVERSIDAD;MINISTERIO;VEHICULAR;PERSONA;Balcarce 186, Argentina;-34.60978093;-58.37060433;2022; 4,943.00 
14;MINISTERIO;MINISTERIO DE OBRAS PÚBLICAS;MINISTERIO;VIDA;PERSONA;Hipólito Yrigoyen 250, Argentina;-34.60898014;-58.3701174;2013; 5,071.00 
14;MINISTERIO;MINISTERIO DE OBRAS PÚBLICAS;MINISTERIO;VIDA;PERSONA;Hipólito Yrigoyen 250, Argentina;-34.60898014;-58.3701174;2014; 2,263.00 
14;MINISTERIO;MINISTERIO DE OBRAS PÚBLICAS;MINISTERIO;VIDA;PERSONA;Hipólito Yrigoyen 250, Argentina;-34.60898014;-58.3701174;2015; 6,551.00 
14;MINISTERIO;MINISTERIO DE OBRAS PÚBLICAS;MINISTERIO;VIDA;PERSONA;Hipólito Yrigoyen 250, Argentina;-34.60898014;-58.3701174;2016; 2,992.00 
14;MINISTERIO;MINISTERIO DE OBRAS PÚBLICAS;MINISTERIO;VIDA;PERSONA;Hipólito Yrigoyen 250, Argentina;-34.60898014;-58.3701174;2017; 3,970.00 
14;MINISTERIO;MINISTERIO DE OBRAS PÚBLICAS;MINISTERIO;VIDA;PERSONA;Hipólito Yrigoyen 250, Argentina;-34.60898014;-58.3701174;2018; 6,999.00 
14;MINISTERIO;MINISTERIO DE OBRAS PÚBLICAS;MINISTERIO;VIDA;PERSONA;Hipólito Yrigoyen 250, Argentina;-34.60898014;-58.3701174;2019; 6,029.00 
14;MINISTERIO;MINISTERIO DE OBRAS PÚBLICAS;MINISTERIO;VIDA;PERSONA;Hipólito Yrigoyen 250, Argentina;-34.60898014;-58.3701174;2020; 4,180.00 
14;MINISTERIO;MINISTERIO DE OBRAS PÚBLICAS;MINISTERIO;VIDA;PERSONA;Hipólito Yrigoyen 250, Argentina;-34.60898014;-58.3701174;2021; 3,752.00 
14;MINISTERIO;MINISTERIO DE OBRAS PÚBLICAS;MINISTERIO;VIDA;PERSONA;Hipólito Yrigoyen 250, Argentina;-34.60898014;-58.3701174;2022; 3,608.00 
15;MINISTERIO;MINISTERIO DE RELACIONES EXTERIORES, COMERCIO INTERNACIONAL Y CULTO;MINISTERIO;VIDA;PERSONA;Esmeralda 1216, C1007 ABR, Buenos Aires, Argentina;-34.59364588;-58.37882956;2013; 5,630.00 
15;MINISTERIO;MINISTERIO DE RELACIONES EXTERIORES, COMERCIO INTERNACIONAL Y CULTO;MINISTERIO;VIDA;PERSONA;Esmeralda 1216, C1007 ABR, Buenos Aires, Argentina;-34.59364588;-58.37882956;2014; 6,628.00 
15;MINISTERIO;MINISTERIO DE RELACIONES EXTERIORES, COMERCIO INTERNACIONAL Y CULTO;MINISTERIO;VIDA;PERSONA;Esmeralda 1216, C1007 ABR, Buenos Aires, Argentina;-34.59364588;-58.37882956;2015; 3,410.00 
15;MINISTERIO;MINISTERIO DE RELACIONES EXTERIORES, COMERCIO INTERNACIONAL Y CULTO;MINISTERIO;VIDA;PERSONA;Esmeralda 1216, C1007 ABR, Buenos Aires, Argentina;-34.59364588;-58.37882956;2016; 4,149.00 
15;MINISTERIO;MINISTERIO DE RELACIONES EXTERIORES, COMERCIO INTERNACIONAL Y CULTO;MINISTERIO;VIDA;PERSONA;Esmeralda 1216, C1007 ABR, Buenos Aires, Argentina;-34.59364588;-58.37882956;2017; 3,099.00 
15;MINISTERIO;MINISTERIO DE RELACIONES EXTERIORES, COMERCIO INTERNACIONAL Y CULTO;MINISTERIO;VIDA;PERSONA;Esmeralda 1216, C1007 ABR, Buenos Aires, Argentina;-34.59364588;-58.37882956;2018; 6,295.00 
15;MINISTERIO;MINISTERIO DE RELACIONES EXTERIORES, COMERCIO INTERNACIONAL Y CULTO;MINISTERIO;VIDA;PERSONA;Esmeralda 1216, C1007 ABR, Buenos Aires, Argentina;-34.59364588;-58.37882956;2019; 2,990.00 
15;MINISTERIO;MINISTERIO DE RELACIONES EXTERIORES, COMERCIO INTERNACIONAL Y CULTO;MINISTERIO;VIDA;PERSONA;Esmeralda 1216, C1007 ABR, Buenos Aires, Argentina;-34.59364588;-58.37882956;2020; 2,730.00 
15;MINISTERIO;MINISTERIO DE RELACIONES EXTERIORES, COMERCIO INTERNACIONAL Y CULTO;MINISTERIO;VIDA;PERSONA;Esmeralda 1216, C1007 ABR, Buenos Aires, Argentina;-34.59364588;-58.37882956;2021; 6,245.00 
15;MINISTERIO;MINISTERIO DE RELACIONES EXTERIORES, COMERCIO INTERNACIONAL Y CULTO;MINISTERIO;VIDA;PERSONA;Esmeralda 1216, C1007 ABR, Buenos Aires, Argentina;-34.59364588;-58.37882956;2022; 4,039.00 
16;MINISTERIO;MINISTERIO DE SALUD;MINISTERIO;VIDA;PERSONA;Av. 9 de Julio 1925, Argentina;-34.61207259;-58.38136174;2013; 6,102.00 
16;MINISTERIO;MINISTERIO DE SALUD;MINISTERIO;VIDA;PERSONA;Av. 9 de Julio 1925, Argentina;-34.61207259;-58.38136174;2014; 4,220.00 
16;MINISTERIO;MINISTERIO DE SALUD;MINISTERIO;VIDA;PERSONA;Av. 9 de Julio 1925, Argentina;-34.61207259;-58.38136174;2015; 5,817.00 
16;MINISTERIO;MINISTERIO DE SALUD;MINISTERIO;VIDA;PERSONA;Av. 9 de Julio 1925, Argentina;-34.61207259;-58.38136174;2016; 2,228.00 
16;MINISTERIO;MINISTERIO DE SALUD;MINISTERIO;VIDA;PERSONA;Av. 9 de Julio 1925, Argentina;-34.61207259;-58.38136174;2017; 6,840.00 
16;MINISTERIO;MINISTERIO DE SALUD;MINISTERIO;VIDA;PERSONA;Av. 9 de Julio 1925, Argentina;-34.61207259;-58.38136174;2018; 4,052.00 
16;MINISTERIO;MINISTERIO DE SALUD;MINISTERIO;VIDA;PERSONA;Av. 9 de Julio 1925, Argentina;-34.61207259;-58.38136174;2019; 2,052.00 
16;MINISTERIO;MINISTERIO DE SALUD;MINISTERIO;VIDA;PERSONA;Av. 9 de Julio 1925, Argentina;-34.61207259;-58.38136174;2020; 2,771.00 
16;MINISTERIO;MINISTERIO DE SALUD;MINISTERIO;VIDA;PERSONA;Av. 9 de Julio 1925, Argentina;-34.61207259;-58.38136174;2021; 3,143.00 
16;MINISTERIO;MINISTERIO DE SALUD;MINISTERIO;VIDA;PERSONA;Av. 9 de Julio 1925, Argentina;-34.61207259;-58.38136174;2022; 6,166.00 
16;MINISTERIO;MINISTERIO DE SEGURIDAD;MINISTERIO;VIDA;PERSONA;Gelly y Obes 2289, Argentina;-34.58563769;-58.39638324;2013; 3,342.00 
16;MINISTERIO;MINISTERIO DE SEGURIDAD;MINISTERIO;VIDA;PERSONA;Gelly y Obes 2289, Argentina;-34.58563769;-58.39638324;2014; 2,815.00 
16;MINISTERIO;MINISTERIO DE SEGURIDAD;MINISTERIO;VIDA;PERSONA;Gelly y Obes 2289, Argentina;-34.58563769;-58.39638324;2015; 2,907.00 
16;MINISTERIO;MINISTERIO DE SEGURIDAD;MINISTERIO;VIDA;PERSONA;Gelly y Obes 2289, Argentina;-34.58563769;-58.39638324;2016; 4,806.00 
16;MINISTERIO;MINISTERIO DE SEGURIDAD;MINISTERIO;VIDA;PERSONA;Gelly y Obes 2289, Argentina;-34.58563769;-58.39638324;2017; 5,213.00 
16;MINISTERIO;MINISTERIO DE SEGURIDAD;MINISTERIO;VIDA;PERSONA;Gelly y Obes 2289, Argentina;-34.58563769;-58.39638324;2018; 5,740.00 
16;MINISTERIO;MINISTERIO DE SEGURIDAD;MINISTERIO;VIDA;PERSONA;Gelly y Obes 2289, Argentina;-34.58563769;-58.39638324;2019; 3,112.00 
16;MINISTERIO;MINISTERIO DE SEGURIDAD;MINISTERIO;VIDA;PERSONA;Gelly y Obes 2289, Argentina;-34.58563769;-58.39638324;2020; 6,019.00 
16;MINISTERIO;MINISTERIO DE SEGURIDAD;MINISTERIO;VIDA;PERSONA;Gelly y Obes 2289, Argentina;-34.58563769;-58.39638324;2021; 6,362.00 
16;MINISTERIO;MINISTERIO DE SEGURIDAD;MINISTERIO;VIDA;PERSONA;Gelly y Obes 2289, Argentina;-34.58563769;-58.39638324;2022; 3,461.00 
17;MINISTERIO;MINISTERIO DE TRABAJO, EMPLEO Y SEGURIDAD SOCIAL;MINISTERIO;FAMILIAR;PERSONA;Av. Leandro N. Alem 650, CABA, Argentina;-34.59990771;-58.37095722;2013; 5,569.00 
17;MINISTERIO;MINISTERIO DE TRABAJO, EMPLEO Y SEGURIDAD SOCIAL;MINISTERIO;FAMILIAR;PERSONA;Av. Leandro N. Alem 650, CABA, Argentina;-34.59990771;-58.37095722;2014; 4,307.00 
17;MINISTERIO;MINISTERIO DE TRABAJO, EMPLEO Y SEGURIDAD SOCIAL;MINISTERIO;FAMILIAR;PERSONA;Av. Leandro N. Alem 650, CABA, Argentina;-34.59990771;-58.37095722;2015; 4,385.00 
17;MINISTERIO;MINISTERIO DE TRABAJO, EMPLEO Y SEGURIDAD SOCIAL;MINISTERIO;FAMILIAR;PERSONA;Av. Leandro N. Alem 650, CABA, Argentina;-34.59990771;-58.37095722;2016; 3,507.00 
17;MINISTERIO;MINISTERIO DE TRABAJO, EMPLEO Y SEGURIDAD SOCIAL;MINISTERIO;FAMILIAR;PERSONA;Av. Leandro N. Alem 650, CABA, Argentina;-34.59990771;-58.37095722;2017; 5,042.00 
17;MINISTERIO;MINISTERIO DE TRABAJO, EMPLEO Y SEGURIDAD SOCIAL;MINISTERIO;FAMILIAR;PERSONA;Av. Leandro N. Alem 650, CABA, Argentina;-34.59990771;-58.37095722;2018; 6,043.00 
17;MINISTERIO;MINISTERIO DE TRABAJO, EMPLEO Y SEGURIDAD SOCIAL;MINISTERIO;FAMILIAR;PERSONA;Av. Leandro N. Alem 650, CABA, Argentina;-34.59990771;-58.37095722;2019; 6,611.00 
17;MINISTERIO;MINISTERIO DE TRABAJO, EMPLEO Y SEGURIDAD SOCIAL;MINISTERIO;FAMILIAR;PERSONA;Av. Leandro N. Alem 650, CABA, Argentina;-34.59990771;-58.37095722;2020; 3,500.00 
17;MINISTERIO;MINISTERIO DE TRABAJO, EMPLEO Y SEGURIDAD SOCIAL;MINISTERIO;FAMILIAR;PERSONA;Av. Leandro N. Alem 650, CABA, Argentina;-34.59990771;-58.37095722;2021; 3,055.00 
17;MINISTERIO;MINISTERIO DE TRABAJO, EMPLEO Y SEGURIDAD SOCIAL;MINISTERIO;FAMILIAR;PERSONA;Av. Leandro N. Alem 650, CABA, Argentina;-34.59990771;-58.37095722;2022; 5,940.00 
18;MINISTERIO;MINISTERIO DE TRANSPORTE;MINISTERIO;VIDA;PERSONA;Hipólito Yrigoyen 250, Ciudad Autónoma de Buenos Aires, Argentina;-34.60885137;-58.37008536;2013; 3,687.00 
18;MINISTERIO;MINISTERIO DE TRANSPORTE;MINISTERIO;VIDA;PERSONA;Hipólito Yrigoyen 250, Ciudad Autónoma de Buenos Aires, Argentina;-34.60885137;-58.37008536;2014; 6,197.00 
18;MINISTERIO;MINISTERIO DE TRANSPORTE;MINISTERIO;VIDA;PERSONA;Hipólito Yrigoyen 250, Ciudad Autónoma de Buenos Aires, Argentina;-34.60885137;-58.37008536;2015; 6,675.00 
18;MINISTERIO;MINISTERIO DE TRANSPORTE;MINISTERIO;VIDA;PERSONA;Hipólito Yrigoyen 250, Ciudad Autónoma de Buenos Aires, Argentina;-34.60885137;-58.37008536;2016; 3,256.00 
18;MINISTERIO;MINISTERIO DE TRANSPORTE;MINISTERIO;VIDA;PERSONA;Hipólito Yrigoyen 250, Ciudad Autónoma de Buenos Aires, Argentina;-34.60885137;-58.37008536;2017; 4,967.00 
18;MINISTERIO;MINISTERIO DE TRANSPORTE;MINISTERIO;VIDA;PERSONA;Hipólito Yrigoyen 250, Ciudad Autónoma de Buenos Aires, Argentina;-34.60885137;-58.37008536;2018; 3,331.00 
18;MINISTERIO;MINISTERIO DE TRANSPORTE;MINISTERIO;VIDA;PERSONA;Hipólito Yrigoyen 250, Ciudad Autónoma de Buenos Aires, Argentina;-34.60885137;-58.37008536;2019; 2,964.00 
18;MINISTERIO;MINISTERIO DE TRANSPORTE;MINISTERIO;VIDA;PERSONA;Hipólito Yrigoyen 250, Ciudad Autónoma de Buenos Aires, Argentina;-34.60885137;-58.37008536;2020; 5,538.00 
18;MINISTERIO;MINISTERIO DE TRANSPORTE;MINISTERIO;VIDA;PERSONA;Hipólito Yrigoyen 250, Ciudad Autónoma de Buenos Aires, Argentina;-34.60885137;-58.37008536;2021; 5,564.00 
18;MINISTERIO;MINISTERIO DE TRANSPORTE;MINISTERIO;VIDA;PERSONA;Hipólito Yrigoyen 250, Ciudad Autónoma de Buenos Aires, Argentina;-34.60885137;-58.37008536;2022; 2,361.00 
19;MINISTERIO;MINISTERIO DE TURISMO Y DEPORTES;MINISTERIO;VIDA;PERSONA;Suipacha 1111, Ciudad Autónoma de Buenos Aires, Argentina;-34.59474788;-58.37979286;2013; 4,088.00 
19;MINISTERIO;MINISTERIO DE TURISMO Y DEPORTES;MINISTERIO;VIDA;PERSONA;Suipacha 1111, Ciudad Autónoma de Buenos Aires, Argentina;-34.59474788;-58.37979286;2014; 2,562.00 
19;MINISTERIO;MINISTERIO DE TURISMO Y DEPORTES;MINISTERIO;VIDA;PERSONA;Suipacha 1111, Ciudad Autónoma de Buenos Aires, Argentina;-34.59474788;-58.37979286;2015; 3,007.00 
19;MINISTERIO;MINISTERIO DE TURISMO Y DEPORTES;MINISTERIO;VIDA;PERSONA;Suipacha 1111, Ciudad Autónoma de Buenos Aires, Argentina;-34.59474788;-58.37979286;2016; 4,838.00 
19;MINISTERIO;MINISTERIO DE TURISMO Y DEPORTES;MINISTERIO;VIDA;PERSONA;Suipacha 1111, Ciudad Autónoma de Buenos Aires, Argentina;-34.59474788;-58.37979286;2017; 5,989.00 
19;MINISTERIO;MINISTERIO DE TURISMO Y DEPORTES;MINISTERIO;VIDA;PERSONA;Suipacha 1111, Ciudad Autónoma de Buenos Aires, Argentina;-34.59474788;-58.37979286;2018; 4,726.00 
19;MINISTERIO;MINISTERIO DE TURISMO Y DEPORTES;MINISTERIO;VIDA;PERSONA;Suipacha 1111, Ciudad Autónoma de Buenos Aires, Argentina;-34.59474788;-58.37979286;2019; 6,886.00 
19;MINISTERIO;MINISTERIO DE TURISMO Y DEPORTES;MINISTERIO;VIDA;PERSONA;Suipacha 1111, Ciudad Autónoma de Buenos Aires, Argentina;-34.59474788;-58.37979286;2020; 6,832.00 
19;MINISTERIO;MINISTERIO DE TURISMO Y DEPORTES;MINISTERIO;VIDA;PERSONA;Suipacha 1111, Ciudad Autónoma de Buenos Aires, Argentina;-34.59474788;-58.37979286;2021; 2,393.00 
19;MINISTERIO;MINISTERIO DE TURISMO Y DEPORTES;MINISTERIO;VIDA;PERSONA;Suipacha 1111, Ciudad Autónoma de Buenos Aires, Argentina;-34.59474788;-58.37979286;2022; 6,599.00 
20;EMPRESA PÚBLICA;YPF;EMPRESA PÚBLICA;PATRIMONIAL;FLOTA;Güemes 515, City of Buenos Aires. Argentina;-34.60536311;-58.36218707;2013; 5,264.00 
20;EMPRESA PÚBLICA;YPF;EMPRESA PÚBLICA;PATRIMONIAL;FLOTA;Güemes 515, City of Buenos Aires. Argentina;-34.60536311;-58.36218707;2014; 3,823.00 
20;EMPRESA PÚBLICA;YPF;EMPRESA PÚBLICA;PATRIMONIAL;FLOTA;Güemes 515, City of Buenos Aires. Argentina;-34.60536311;-58.36218707;2015; 4,474.00 
20;EMPRESA PÚBLICA;YPF;EMPRESA PÚBLICA;PATRIMONIAL;FLOTA;Güemes 515, City of Buenos Aires. Argentina;-34.60536311;-58.36218707;2016; 6,211.00 
20;EMPRESA PÚBLICA;YPF;EMPRESA PÚBLICA;PATRIMONIAL;FLOTA;Güemes 515, City of Buenos Aires. Argentina;-34.60536311;-58.36218707;2017; 3,144.00 
20;EMPRESA PÚBLICA;YPF;EMPRESA PÚBLICA;PATRIMONIAL;FLOTA;Güemes 515, City of Buenos Aires. Argentina;-34.60536311;-58.36218707;2018; 5,348.00 
20;EMPRESA PÚBLICA;YPF;EMPRESA PÚBLICA;PATRIMONIAL;FLOTA;Güemes 515, City of Buenos Aires. Argentina;-34.60536311;-58.36218707;2019; 6,007.00 
20;EMPRESA PÚBLICA;YPF;EMPRESA PÚBLICA;PATRIMONIAL;FLOTA;Güemes 515, City of Buenos Aires. Argentina;-34.60536311;-58.36218707;2020; 3,902.00 
20;EMPRESA PÚBLICA;YPF;EMPRESA PÚBLICA;PATRIMONIAL;FLOTA;Güemes 515, City of Buenos Aires. Argentina;-34.60536311;-58.36218707;2021; 4,117.00 
20;EMPRESA PÚBLICA;YPF;EMPRESA PÚBLICA;PATRIMONIAL;FLOTA;Güemes 515, City of Buenos Aires. Argentina;-34.60536311;-58.36218707;2022; 4,740.00 
21;EMPRESA PÚBLICA;AYSA;EMPRESA PÚBLICA;PATRIMONIAL;FLOTA;Riobamba 750, C1025 CABA, Argentina;-34.59995596;-58.39481919;2013; 2,631.00 
21;EMPRESA PÚBLICA;AYSA;EMPRESA PÚBLICA;PATRIMONIAL;FLOTA;Riobamba 750, C1025 CABA, Argentina;-34.59995596;-58.39481919;2014; 3,581.00 
21;EMPRESA PÚBLICA;AYSA;EMPRESA PÚBLICA;PATRIMONIAL;FLOTA;Riobamba 750, C1025 CABA, Argentina;-34.59995596;-58.39481919;2015; 4,083.00 
21;EMPRESA PÚBLICA;AYSA;EMPRESA PÚBLICA;PATRIMONIAL;FLOTA;Riobamba 750, C1025 CABA, Argentina;-34.59995596;-58.39481919;2016; 6,937.00 
21;EMPRESA PÚBLICA;AYSA;EMPRESA PÚBLICA;PATRIMONIAL;FLOTA;Riobamba 750, C1025 CABA, Argentina;-34.59995596;-58.39481919;2017; 2,665.00 
21;EMPRESA PÚBLICA;AYSA;EMPRESA PÚBLICA;PATRIMONIAL;FLOTA;Riobamba 750, C1025 CABA, Argentina;-34.59995596;-58.39481919;2018; 4,012.00 
21;EMPRESA PÚBLICA;AYSA;EMPRESA PÚBLICA;PATRIMONIAL;FLOTA;Riobamba 750, C1025 CABA, Argentina;-34.59995596;-58.39481919;2019; 3,282.00 
21;EMPRESA PÚBLICA;AYSA;EMPRESA PÚBLICA;PATRIMONIAL;FLOTA;Riobamba 750, C1025 CABA, Argentina;-34.59995596;-58.39481919;2020; 6,936.00 
21;EMPRESA PÚBLICA;AYSA;EMPRESA PÚBLICA;PATRIMONIAL;FLOTA;Riobamba 750, C1025 CABA, Argentina;-34.59995596;-58.39481919;2021; 3,382.00 
21;EMPRESA PÚBLICA;AYSA;EMPRESA PÚBLICA;PATRIMONIAL;FLOTA;Riobamba 750, C1025 CABA, Argentina;-34.59995596;-58.39481919;2022; 2,881.00 
22;EMPRESA PÚBLICA;AEROLÍNEAS ARGENTINAS‎;EMPRESA PÚBLICA;PATRIMONIAL;PERSONA;Calle 6 nro. 668, La Plata, Argentina;-34.91058193;-57.95257814;2013; 6,783.00 
22;EMPRESA PÚBLICA;AEROLÍNEAS ARGENTINAS‎;EMPRESA PÚBLICA;PATRIMONIAL;PERSONA;Calle 6 nro. 668, La Plata, Argentina;-34.91058193;-57.95257814;2014; 6,257.00 
22;EMPRESA PÚBLICA;AEROLÍNEAS ARGENTINAS‎;EMPRESA PÚBLICA;PATRIMONIAL;PERSONA;Calle 6 nro. 668, La Plata, Argentina;-34.91058193;-57.95257814;2015; 4,307.00 
22;EMPRESA PÚBLICA;AEROLÍNEAS ARGENTINAS‎;EMPRESA PÚBLICA;PATRIMONIAL;PERSONA;Calle 6 nro. 668, La Plata, Argentina;-34.91058193;-57.95257814;2016; 4,642.00 
22;EMPRESA PÚBLICA;AEROLÍNEAS ARGENTINAS‎;EMPRESA PÚBLICA;PATRIMONIAL;PERSONA;Calle 6 nro. 668, La Plata, Argentina;-34.91058193;-57.95257814;2017; 6,855.00 
22;EMPRESA PÚBLICA;AEROLÍNEAS ARGENTINAS‎;EMPRESA PÚBLICA;PATRIMONIAL;PERSONA;Calle 6 nro. 668, La Plata, Argentina;-34.91058193;-57.95257814;2018; 2,678.00 
22;EMPRESA PÚBLICA;AEROLÍNEAS ARGENTINAS‎;EMPRESA PÚBLICA;PATRIMONIAL;PERSONA;Calle 6 nro. 668, La Plata, Argentina;-34.91058193;-57.95257814;2019; 2,483.00 
22;EMPRESA PÚBLICA;AEROLÍNEAS ARGENTINAS‎;EMPRESA PÚBLICA;PATRIMONIAL;PERSONA;Calle 6 nro. 668, La Plata, Argentina;-34.91058193;-57.95257814;2020; 4,413.00 
22;EMPRESA PÚBLICA;AEROLÍNEAS ARGENTINAS‎;EMPRESA PÚBLICA;PATRIMONIAL;PERSONA;Calle 6 nro. 668, La Plata, Argentina;-34.91058193;-57.95257814;2021; 2,237.00 
22;EMPRESA PÚBLICA;AEROLÍNEAS ARGENTINAS‎;EMPRESA PÚBLICA;PATRIMONIAL;PERSONA;Calle 6 nro. 668, La Plata, Argentina;-34.91058193;-57.95257814;2022; 6,298.00 
23;EMPRESA PÚBLICA;ARSAT‎;EMPRESA PÚBLICA;PATRIMONIAL;PERSONA;J. D. Perón 7934, Benavidez, Buenos Aires, Argentina;-34.41005628;-58.71931249;2013; 4,726.00 
23;EMPRESA PÚBLICA;ARSAT‎;EMPRESA PÚBLICA;PATRIMONIAL;PERSONA;J. D. Perón 7934, Benavidez, Buenos Aires, Argentina;-34.41005628;-58.71931249;2014; 5,183.00 
23;EMPRESA PÚBLICA;ARSAT‎;EMPRESA PÚBLICA;PATRIMONIAL;PERSONA;J. D. Perón 7934, Benavidez, Buenos Aires, Argentina;-34.41005628;-58.71931249;2015; 5,948.00 
23;EMPRESA PÚBLICA;ARSAT‎;EMPRESA PÚBLICA;PATRIMONIAL;PERSONA;J. D. Perón 7934, Benavidez, Buenos Aires, Argentina;-34.41005628;-58.71931249;2016; 4,030.00 
23;EMPRESA PÚBLICA;ARSAT‎;EMPRESA PÚBLICA;PATRIMONIAL;PERSONA;J. D. Perón 7934, Benavidez, Buenos Aires, Argentina;-34.41005628;-58.71931249;2017; 6,178.00 
23;EMPRESA PÚBLICA;ARSAT‎;EMPRESA PÚBLICA;PATRIMONIAL;PERSONA;J. D. Perón 7934, Benavidez, Buenos Aires, Argentina;-34.41005628;-58.71931249;2018; 4,663.00 
23;EMPRESA PÚBLICA;ARSAT‎;EMPRESA PÚBLICA;PATRIMONIAL;PERSONA;J. D. Perón 7934, Benavidez, Buenos Aires, Argentina;-34.41005628;-58.71931249;2019; 4,248.00 
23;EMPRESA PÚBLICA;ARSAT‎;EMPRESA PÚBLICA;PATRIMONIAL;PERSONA;J. D. Perón 7934, Benavidez, Buenos Aires, Argentina;-34.41005628;-58.71931249;2020; 4,540.00 
23;EMPRESA PÚBLICA;ARSAT‎;EMPRESA PÚBLICA;PATRIMONIAL;PERSONA;J. D. Perón 7934, Benavidez, Buenos Aires, Argentina;-34.41005628;-58.71931249;2021; 3,637.00 
24;EMPRESA PÚBLICA;ARSAT‎;EMPRESA PÚBLICA;PATRIMONIAL;PERSONA;J. D. Perón 7934, Benavidez, Buenos Aires, Argentina;-34.41005628;-58.71931249;2022; 5,298.00 
25;EMPRESA PÚBLICA;DIRECCIÓN GENERAL DE FABRICACIONES MILITARES‎;MINISTERIO;VIDA;FLOTA;Av Urquiza 55, Villa Mar a, Cordoba, Argentina;-31.42702804;-62.09679282;2013; 4,204.00 
25;EMPRESA PÚBLICA;DIRECCIÓN GENERAL DE FABRICACIONES MILITARES‎;MINISTERIO;VIDA;FLOTA;Av Urquiza 55, Villa Mar a, Cordoba, Argentina;-31.42702804;-62.09679282;2014; 2,560.00 
25;EMPRESA PÚBLICA;DIRECCIÓN GENERAL DE FABRICACIONES MILITARES‎;MINISTERIO;VIDA;FLOTA;Av Urquiza 55, Villa Mar a, Cordoba, Argentina;-31.42702804;-62.09679282;2015; 6,892.00 
25;EMPRESA PÚBLICA;DIRECCIÓN GENERAL DE FABRICACIONES MILITARES‎;MINISTERIO;VIDA;FLOTA;Av Urquiza 55, Villa Mar a, Cordoba, Argentina;-31.42702804;-62.09679282;2016; 5,334.00 
25;EMPRESA PÚBLICA;DIRECCIÓN GENERAL DE FABRICACIONES MILITARES‎;MINISTERIO;VIDA;FLOTA;Av Urquiza 55, Villa Mar a, Cordoba, Argentina;-31.42702804;-62.09679282;2017; 4,089.00 
25;EMPRESA PÚBLICA;DIRECCIÓN GENERAL DE FABRICACIONES MILITARES‎;MINISTERIO;VIDA;FLOTA;Av Urquiza 55, Villa Mar a, Cordoba, Argentina;-31.42702804;-62.09679282;2018; 2,575.00 
25;EMPRESA PÚBLICA;DIRECCIÓN GENERAL DE FABRICACIONES MILITARES‎;MINISTERIO;VIDA;FLOTA;Av Urquiza 55, Villa Mar a, Cordoba, Argentina;-31.42702804;-62.09679282;2019; 4,344.00 
25;EMPRESA PÚBLICA;DIRECCIÓN GENERAL DE FABRICACIONES MILITARES‎;MINISTERIO;VIDA;FLOTA;Av Urquiza 55, Villa Mar a, Cordoba, Argentina;-31.42702804;-62.09679282;2020; 3,604.00 
25;EMPRESA PÚBLICA;DIRECCIÓN GENERAL DE FABRICACIONES MILITARES‎;MINISTERIO;VIDA;FLOTA;Av Urquiza 55, Villa Mar a, Cordoba, Argentina;-31.42702804;-62.09679282;2021; 5,470.00 
25;EMPRESA PÚBLICA;DIRECCIÓN GENERAL DE FABRICACIONES MILITARES‎;MINISTERIO;VIDA;FLOTA;Av Urquiza 55, Villa Mar a, Cordoba, Argentina;-31.42702804;-62.09679282;2022; 4,869.00 
26;EMPRESA PÚBLICA;FABRICACIONES MILITARES SOCIEDAD DEL ESTADO‎;EMPRESA PÚBLICA;PATRIMONIAL;PERSONA;Av. Cabildo 65, Buenos Aires, Argentina;-34.5736939;-58.43622036;2013; 2,120.00 
26;EMPRESA PÚBLICA;FABRICACIONES MILITARES SOCIEDAD DEL ESTADO‎;EMPRESA PÚBLICA;PATRIMONIAL;PERSONA;Av. Cabildo 65, Buenos Aires, Argentina;-34.5736939;-58.43622036;2014; 5,166.00 
26;EMPRESA PÚBLICA;FABRICACIONES MILITARES SOCIEDAD DEL ESTADO‎;EMPRESA PÚBLICA;PATRIMONIAL;PERSONA;Av. Cabildo 65, Buenos Aires, Argentina;-34.5736939;-58.43622036;2015; 6,165.00 
26;EMPRESA PÚBLICA;FABRICACIONES MILITARES SOCIEDAD DEL ESTADO‎;EMPRESA PÚBLICA;PATRIMONIAL;PERSONA;Av. Cabildo 65, Buenos Aires, Argentina;-34.5736939;-58.43622036;2016; 3,483.00 
26;EMPRESA PÚBLICA;FABRICACIONES MILITARES SOCIEDAD DEL ESTADO‎;EMPRESA PÚBLICA;PATRIMONIAL;PERSONA;Av. Cabildo 65, Buenos Aires, Argentina;-34.5736939;-58.43622036;2017; 6,828.00 
26;EMPRESA PÚBLICA;FABRICACIONES MILITARES SOCIEDAD DEL ESTADO‎;EMPRESA PÚBLICA;PATRIMONIAL;PERSONA;Av. Cabildo 65, Buenos Aires, Argentina;-34.5736939;-58.43622036;2018; 6,046.00 
26;EMPRESA PÚBLICA;FABRICACIONES MILITARES SOCIEDAD DEL ESTADO‎;EMPRESA PÚBLICA;PATRIMONIAL;PERSONA;Av. Cabildo 65, Buenos Aires, Argentina;-34.5736939;-58.43622036;2019; 2,801.00 
26;EMPRESA PÚBLICA;FABRICACIONES MILITARES SOCIEDAD DEL ESTADO‎;EMPRESA PÚBLICA;PATRIMONIAL;PERSONA;Av. Cabildo 65, Buenos Aires, Argentina;-34.5736939;-58.43622036;2020; 4,644.00 
26;EMPRESA PÚBLICA;FABRICACIONES MILITARES SOCIEDAD DEL ESTADO‎;EMPRESA PÚBLICA;PATRIMONIAL;PERSONA;Av. Cabildo 65, Buenos Aires, Argentina;-34.5736939;-58.43622036;2021; 3,588.00 
26;EMPRESA PÚBLICA;FABRICACIONES MILITARES SOCIEDAD DEL ESTADO‎;EMPRESA PÚBLICA;PATRIMONIAL;PERSONA;Av. Cabildo 65, Buenos Aires, Argentina;-34.5736939;-58.43622036;2022; 6,580.00 
27;EMPRESA PÚBLICA;FADEL‎;EMPRESA PÚBLICA;PATRIMONIAL;PERSONA;Mariano Moreno 271, Colón, Entre Ríos, Argentina;-32.2221261;-58.1374579;2013; 3,368.00 
27;EMPRESA PÚBLICA;FADEL‎;EMPRESA PÚBLICA;PATRIMONIAL;PERSONA;Mariano Moreno 271, Colón, Entre Ríos, Argentina;-32.2221261;-58.1374579;2014; 5,710.00 
27;EMPRESA PÚBLICA;FADEL‎;EMPRESA PÚBLICA;PATRIMONIAL;PERSONA;Mariano Moreno 271, Colón, Entre Ríos, Argentina;-32.2221261;-58.1374579;2015; 2,417.00 
27;EMPRESA PÚBLICA;FADEL‎;EMPRESA PÚBLICA;PATRIMONIAL;PERSONA;Mariano Moreno 271, Colón, Entre Ríos, Argentina;-32.2221261;-58.1374579;2016; 5,532.00 
27;EMPRESA PÚBLICA;FADEL‎;EMPRESA PÚBLICA;PATRIMONIAL;PERSONA;Mariano Moreno 271, Colón, Entre Ríos, Argentina;-32.2221261;-58.1374579;2017; 2,692.00 
27;EMPRESA PÚBLICA;FADEL‎;EMPRESA PÚBLICA;PATRIMONIAL;PERSONA;Mariano Moreno 271, Colón, Entre Ríos, Argentina;-32.2221261;-58.1374579;2018; 6,237.00 
27;EMPRESA PÚBLICA;FADEL‎;EMPRESA PÚBLICA;PATRIMONIAL;PERSONA;Mariano Moreno 271, Colón, Entre Ríos, Argentina;-32.2221261;-58.1374579;2019; 5,333.00 
27;EMPRESA PÚBLICA;FADEL‎;EMPRESA PÚBLICA;PATRIMONIAL;PERSONA;Mariano Moreno 271, Colón, Entre Ríos, Argentina;-32.2221261;-58.1374579;2020; 4,618.00 
27;EMPRESA PÚBLICA;FADEL‎;EMPRESA PÚBLICA;PATRIMONIAL;PERSONA;Mariano Moreno 271, Colón, Entre Ríos, Argentina;-32.2221261;-58.1374579;2021; 6,363.00 
27;EMPRESA PÚBLICA;FADEL‎;EMPRESA PÚBLICA;PATRIMONIAL;PERSONA;Mariano Moreno 271, Colón, Entre Ríos, Argentina;-32.2221261;-58.1374579;2022; 2,973.00 
28;EMPRESA PÚBLICA;HISPANO-ARGENTINA‎;EMPRESA PÚBLICA;PATRIMONIAL;PERSONA;Comb D L Pozos 128, Capital Federal, Capital Federal, Argentina;-34.6105978;-58.39332529;2013; 5,864.00 
28;EMPRESA PÚBLICA;HISPANO-ARGENTINA‎;EMPRESA PÚBLICA;PATRIMONIAL;PERSONA;Comb D L Pozos 128, Capital Federal, Capital Federal, Argentina;-34.6105978;-58.39332529;2014; 6,427.00 
28;EMPRESA PÚBLICA;HISPANO-ARGENTINA‎;EMPRESA PÚBLICA;PATRIMONIAL;PERSONA;Comb D L Pozos 128, Capital Federal, Capital Federal, Argentina;-34.6105978;-58.39332529;2015; 4,611.00 
28;EMPRESA PÚBLICA;HISPANO-ARGENTINA‎;EMPRESA PÚBLICA;PATRIMONIAL;PERSONA;Comb D L Pozos 128, Capital Federal, Capital Federal, Argentina;-34.6105978;-58.39332529;2016; 2,639.00 
28;EMPRESA PÚBLICA;HISPANO-ARGENTINA‎;EMPRESA PÚBLICA;PATRIMONIAL;PERSONA;Comb D L Pozos 128, Capital Federal, Capital Federal, Argentina;-34.6105978;-58.39332529;2017; 5,227.00 
28;EMPRESA PÚBLICA;HISPANO-ARGENTINA‎;EMPRESA PÚBLICA;PATRIMONIAL;PERSONA;Comb D L Pozos 128, Capital Federal, Capital Federal, Argentina;-34.6105978;-58.39332529;2018; 3,933.00 
28;EMPRESA PÚBLICA;HISPANO-ARGENTINA‎;EMPRESA PÚBLICA;PATRIMONIAL;PERSONA;Comb D L Pozos 128, Capital Federal, Capital Federal, Argentina;-34.6105978;-58.39332529;2019; 6,104.00 
28;EMPRESA PÚBLICA;HISPANO-ARGENTINA‎;EMPRESA PÚBLICA;PATRIMONIAL;PERSONA;Comb D L Pozos 128, Capital Federal, Capital Federal, Argentina;-34.6105978;-58.39332529;2020; 3,161.00 
28;EMPRESA PÚBLICA;HISPANO-ARGENTINA‎;EMPRESA PÚBLICA;PATRIMONIAL;PERSONA;Comb D L Pozos 128, Capital Federal, Capital Federal, Argentina;-34.6105978;-58.39332529;2021; 5,426.00 
28;EMPRESA PÚBLICA;HISPANO-ARGENTINA‎;EMPRESA PÚBLICA;PATRIMONIAL;PERSONA;Comb D L Pozos 128, Capital Federal, Capital Federal, Argentina;-34.6105978;-58.39332529;2022; 6,605.00 
29;EMPRESA PÚBLICA;RTA‎;EMPRESA PÚBLICA;VEHICULAR;PERSONA;COV, Mitre 1017, S2000 Rosario, Santa Fe, Argentina;-32.94894188;-60.64015283;2013; 4,709.00 
29;EMPRESA PÚBLICA;RTA‎;EMPRESA PÚBLICA;VEHICULAR;PERSONA;COV, Mitre 1017, S2000 Rosario, Santa Fe, Argentina;-32.94894188;-60.64015283;2014; 2,963.00 
29;EMPRESA PÚBLICA;RTA‎;EMPRESA PÚBLICA;VEHICULAR;PERSONA;COV, Mitre 1017, S2000 Rosario, Santa Fe, Argentina;-32.94894188;-60.64015283;2015; 3,413.00 
29;EMPRESA PÚBLICA;RTA‎;EMPRESA PÚBLICA;VEHICULAR;PERSONA;COV, Mitre 1017, S2000 Rosario, Santa Fe, Argentina;-32.94894188;-60.64015283;2016; 4,566.00 
29;EMPRESA PÚBLICA;RTA‎;EMPRESA PÚBLICA;VEHICULAR;PERSONA;COV, Mitre 1017, S2000 Rosario, Santa Fe, Argentina;-32.94894188;-60.64015283;2017; 3,123.00 
29;EMPRESA PÚBLICA;RTA‎;EMPRESA PÚBLICA;VEHICULAR;PERSONA;COV, Mitre 1017, S2000 Rosario, Santa Fe, Argentina;-32.94894188;-60.64015283;2018; 6,301.00 
29;EMPRESA PÚBLICA;RTA‎;EMPRESA PÚBLICA;VEHICULAR;PERSONA;COV, Mitre 1017, S2000 Rosario, Santa Fe, Argentina;-32.94894188;-60.64015283;2019; 4,076.00 
29;EMPRESA PÚBLICA;RTA‎;EMPRESA PÚBLICA;VEHICULAR;PERSONA;COV, Mitre 1017, S2000 Rosario, Santa Fe, Argentina;-32.94894188;-60.64015283;2020; 4,942.00 
29;EMPRESA PÚBLICA;RTA‎;EMPRESA PÚBLICA;VEHICULAR;PERSONA;COV, Mitre 1017, S2000 Rosario, Santa Fe, Argentina;-32.94894188;-60.64015283;2021; 2,491.00 
29;EMPRESA PÚBLICA;RTA‎;EMPRESA PÚBLICA;VEHICULAR;PERSONA;COV, Mitre 1017, S2000 Rosario, Santa Fe, Argentina;-32.94894188;-60.64015283;2022; 6,532.00 
